[{"OBJECT_NAME":"SATGUS","OBJECT_ID":"2025-009DJ","EPOCH":"2026-03-09T16:57:39.644640","MEAN_MOTION":14.99840473,"ECCENTRICITY":0.00056702,"INCLINATION":97.7097,"RA_OF_ASC_NODE":150.9679,"ARG_OF_PERICENTER":96.3538,"MEAN_ANOMALY":263.8332,"EPHEMERIS_TYPE":0,"CLASSIFICATION_TYPE":"U","NORAD_CAT_ID":62713,"ELEMENT_SET_NO":999,"REV_AT_EPOCH":6264,"BSTAR":0.00076063433,"MEAN_MOTION_DOT":9.37e-5,"MEAN_MOTION_DDOT":0},{"OBJECT_NAME":"STARLINK-34447","OBJECT_ID":"2025-142Q","EPOCH":"2026-03-09T22:00:01.999584","MEAN_MOTION":14.98332922,"ECCENTRICITY":0.00031575,"INCLINATION":70.0005,"RA_OF_ASC_NODE":313.8815,"ARG_OF_PERICENTER":279.4366,"MEAN_ANOMALY":91.7096,"EPHEMERIS_TYPE":0,"CLASSIFICATION_TYPE":"U","NORAD_CAT_ID":64710,"ELEMENT_SET_NO":999,"REV_AT_EPOCH":575,"BSTAR":-0.00065258092,"MEAN_MOTION_DOT":-7.871e-5,"MEAN_MOTION_DDOT":0}]
